OBJECT_NAME,OBJECT_ID,EPOCH,MEAN_MOTION,ECCENTRICITY,INCLINATION,RA_OF_ASC_NODE,ARG_OF_PERICENTER,MEAN_ANOMALY,EPHEMERIS_TYPE,CLASSIFICATION_TYPE,NORAD_CAT_ID,ELEMENT_SET_NO,REV_AT_EPOCH,BSTAR,MEAN_MOTION_DOT,MEAN_MOTION_DDOT
CHUANGXIN 1-02 (CX-1-02),2008-056B,2026-06-09T22:50:05.350848,14.30151718,.00146197,98.6142,187.2903,156.9666,203.2174,0,U,33434,999,91758,.45245858E-4,.73E-6,0
STARS (KUKAI),2009-002G,2026-06-09T14:13:21.256896,14.95695618,.00082587,98.1538,107.5912,183.5517,176.5646,0,U,33498,999,93734,.32699641E-3,.3579E-4,0
KKS-1 (KISEKI),2009-002H,2026-06-09T16:48:29.650752,14.83104968,.00069799,98.1192,83.0240,324.0977,35.9766,0,U,33499,999,93508,.16631678E-3,.1299E-4,0
UK-DMC 2,2009-041C,2026-06-08T21:18:06.143904,14.76019080,.00012963,97.8828,295.0575,72.8745,287.2607,0,U,35683,999,90534,.16742289E-3,.1104E-4,0
OCEANSAT-2,2009-051A,2026-06-09T21:47:31.054848,13.99664410,.00147152,98.2324,148.4855,258.2970,101.6546,0,U,35931,999,87831,.64780584E-4,.57E-6,0
SWISSCUBE,2009-051B,2026-06-09T17:04:01.608672,14.62467613,.00055621,98.4042,68.4691,230.1201,129.9511,0,U,35932,999,88806,.19187016E-3,.922E-5,0
BEESAT-1,2009-051C,2026-06-09T12:16:18.064416,14.61708260,.00039183,98.3972,67.9173,247.5852,112.4933,0,U,35933,999,88806,.16607004E-3,.778E-5,0
ITUPSAT1,2009-051E,2026-06-09T16:49:29.216640,14.60429700,.00061272,98.4055,67.3098,262.2059,97.8445,0,U,35935,999,88764,.15593604E-3,.707E-5,0
DMSP 5D-3 F18 (USA 210),2009-057A,2026-06-09T18:52:42.544128,14.14892588,.00098565,98.9034,141.5719,273.1266,86.8779,0,U,35951,999,85854,.14676984E-3,.239E-5,0
PROBA-2,2009-059B,2026-06-09T17:51:15.729120,14.54859226,.00121934,98.2451,344.2000,307.4414,52.5673,0,U,36037,999,88044,.51680069E-4,.177E-5,0
YAOGAN-7,2009-069A,2026-06-09T15:24:14.072256,14.78002257,.00258897,98.0082,46.5552,65.0609,295.3287,0,U,36110,999,88851,.70576219E-4,.459E-5,0
XIWANG-1 (HOPE-1),2009-072B,2026-06-09T22:45:04.385088,13.16437137,.00068036,100.4022,114.8955,249.7894,110.2487,0,U,36122,999,79205,-.10087061E-2,-.43E-5,0
COSMOS 2463,2010-017A,2026-06-09T18:14:17.983968,13.71665259,.00369782,82.9607,255.1623,148.9087,322.6953,0,U,36519,999,80691,.26764995E-4,.4E-6,0
CARTOSAT-2B,2010-035A,2026-06-09T23:07:39.434304,14.78651741,.00105999,97.9956,211.5593,208.2494,151.8144,0,U,36795,999,85878,.78685384E-4,.524E-5,0
TISAT 1,2010-035E,2026-06-08T19:40:13.696608,15.31390446,.00001854,98.0700,105.6282,170.3248,189.7995,0,U,36799,999,86642,.66607275E-3,.20138E-3,0
YAOGAN-10,2010-038A,2026-06-09T22:49:21.058752,14.85325314,.00016379,97.8984,184.4129,90.4375,24.2539,0,U,36834,999,85613,.12589053E-3,.1028E-4,0
SHIJIAN-6 04B (SJ-6 04B),2010-051B,2026-06-09T22:46:02.875296,14.99297640,.00089823,97.8687,166.2850,337.1979,22.8844,0,U,37180,999,85459,.82025641E-4,.94E-5,0
FENGYUN 3B,2010-059A,2026-06-09T22:57:19.281024,14.14839080,.00214972,98.9625,206.9402,204.7958,254.1975,0,U,37214,999,80640,-.91687302E-4,-.223E-5,0
COSMO-SKYMED 4,2010-060A,2026-06-08T09:32:08.023776,14.82162251,.00014135,97.8890,343.1246,83.8256,276.3118,0,U,37216,999,84326,.70656283E-4,.51E-5,0
O/OREOS (USA 219),2010-062C,2026-06-09T13:28:36.705216,14.93711838,.00123954,71.9704,97.6116,79.7659,280.4909,0,U,37224,999,11550,.21218611E-3,.2187E-4,0
RESOURCESAT-2,2011-015A,2026-06-09T18:27:39.987648,14.21604818,.00101306,98.7644,228.2620,279.4464,80.5568,0,U,37387,999,78512,.4069156E-4,.45E-6,0
YOUTHSAT,2011-015B,2026-06-09T16:03:07.643808,14.25627245,.00146942,98.3678,135.0621,9.2727,165.9185,0,U,37388,999,78656,.92858175E-4,.179E-5,0
APRIZESAT 6,2011-044F,2026-06-09T18:18:59.667840,14.76904932,.00443841,98.2371,71.1111,109.0727,318.0190,0,U,37793,999,79605,.99935979E-4,.658E-5,0
JUGNU,2011-058B,2026-06-09T06:27:07.528032,14.13774628,.001855,19.9621,356.5333,349.0526,166.6651,0,U,37839,999,75790,.72297E-4,.405E-5,0
SRMSAT,2011-058D,2026-06-09T12:50:18.601728,14.11573956,.00119361,19.9710,105.7844,119.8301,40.8059,0,U,37841,999,75673,.52396644E-4,.362E-5,0
